{
  "norad_id": 68852,
  "name": "STARLINK-37423",
  "history": [
    {
      "epoch": "2026-05-02T10:00:03.000096Z",
      "apogee_km": 273.9055381045773,
      "perigee_km": 272.0764779023775,
      "latitude_deg": -51.660754054129065,
      "longitude_deg": -63.516888695436855,
      "height_km": 293.8650183592627,
      "semi_major_axis_km": 6651.128008003478,
      "eccentricity": 0.0001375,
      "inclination_deg": 97.2817,
      "raan_deg": 136.0755,
      "arg_perigee_deg": 89.659,
      "mean_anomaly_deg": 142.3175,
      "mean_motion_rev_day": 16.00515198
    }
  ]
}