{"fetched_at":"2026-05-03T06:27:58Z","count":17151,"tles":[{"name":"STARLINK-37423","line1":"1 68852U 26094P   26122.41670139 -.01701347  88315-3 -32893-2 0  9994","line2":"2 68852  97.2817 136.0755 0001375  89.6590 142.3175 16.00515198  2006","category":"Starlink"}]}